GPS BIIR-2  (PRN 13)    
1 24876C 97035A   21213.71090278 -.00000000  00000-0  00000-0 0  2134
2 24876  55.4790 168.1478 0050114  53.2487 263.1172  2.00562543    14
GPS BIIR-4  (PRN 20)    
1 26360C 00025A   21213.71090278 -.00000000  00000-0  00000-0 0  2137
2 26360  53.8055  92.1070 0054736 172.2777 229.8648  2.00569020    16
GPS BIIR-8  (PRN 16)    
1 27663C 03005A   21213.71090278  .00000000  00000-0  00000-0 0  2134
2 27663  55.7384 285.7480 0120123  38.1503 344.9326  2.00557061    19
GPS BIIR-9  (PRN 21)    
1 27704C 03010A   21213.71090278 -.00000000  00000-0  00000-0 0  2137
2 27704  54.8816  36.2772 0242098 296.4838 300.8396  2.00565906    19
GPS BIIR-10 (PRN 22)    
1 28129C 03058A   21213.71090278 -.00000000  00000-0  00000-0 0  2131
2 28129  53.6159  94.7580 0070438 306.5933 232.6308  2.00552078    11
GPS BIIR-11 (PRN 19)    
1 28190C 04009A   21213.71090278  .00000000  00000-0  00000-0 0  2135
2 28190  56.1670 346.6406 0090309 109.6185  71.8413  2.00567903    14
GPS BIIR-13 (PRN 02)    
1 28474C 04045A   21213.71090278 -.00000000  00000-0  00000-0 0  2131
2 28474  55.2154  36.2973 0204005 273.8332 181.2486  2.00557938    18
GPS BIIRM-1 (PRN 17)    
1 28874C 05038A   21213.71090278  .00000000  00000-0  00000-0 0  2137
2 28874  56.2479 344.0579 0136554 270.3586 294.8222  2.00568671    16
GPS BIIRM-2 (PRN 31)    
1 29486C 06042A   21213.71090278  .00000000  00000-0  00000-0 0  2133
2 29486  54.7639 222.0009 0100051  14.4706 103.4030  2.00574513    18
GPS BIIRM-3 (PRN 12)    
1 29601C 06052A   21213.71090278  .00000000  00000-0  00000-0 0  2133
2 29601  55.7358 284.6756 0080524  70.0224  88.1919  2.00560936    13
GPS BIIRM-4 (PRN 15)    
1 32260C 07047A   21213.71090278 -.00000000  00000-0  00000-0 0  2134
2 32260  53.2434 153.7961 0132375  57.1179 242.1907  2.00565284    17
GPS BIIRM-5 (PRN 29)    
1 32384C 07062A   21213.71090278  .00000000  00000-0  00000-0 0  2137
2 32384  56.3568 344.7794 0018021 134.6152 291.4147  2.00572954    10
GPS BIIRM-6 (PRN 07)    
1 32711C 08012A   21213.71090278  .00000000  00000-0  00000-0 0  2137
2 32711  54.5179 221.0088 0153877 227.9503 130.0069  2.00555141    10
GPS BIIRM-8 (PRN 05)    
1 35752C 09043A   21213.71090278 -.00000000  00000-0  00000-0 0  2131
2 35752  54.8362  98.4296 0059033  53.4052 315.2996  2.00576720    14
GPS BIIF-1  (PRN 25)    
1 36585C 10022A   21213.71090278  .00000000  00000-0  00000-0 0  2134
2 36585  55.0122 280.4177 0096325  54.9554  76.9522  2.00573390    11
GPS BIIF-2  (PRN 01)    
1 37753C 11036A   21213.71090278 -.00000000  00000-0  00000-0 0  2139
2 37753  56.4418  41.1772 0108906  49.5264 165.6907  2.00563893    12
GPS BIIF-3  (PRN 24)    
1 38833C 12053A   21213.71090278  .00000000  00000-0  00000-0 0  2138
2 38833  53.5682 216.4597 0111430  41.8976 187.1843  2.00558001    19
GPS BIIF-4  (PRN 27)    
1 39166C 13023A   21213.71090278  .00000000  00000-0  00000-0 0  2136
2 39166  55.8889 340.5544 0093127  35.3548 291.2632  2.00562569    16
GPS BIIF-5  (PRN 30)    
1 39533C 14008A   21213.71090278  .00000000  00000-0  00000-0 0  2138
2 39533  53.6700 221.9345 0054609 205.2776 120.2127  2.00563990    15
GPS BIIF-6  (PRN 06)    
1 39741C 14026A   21213.71090278 -.00000000  00000-0  00000-0 0  2130
2 39741  56.4096  40.7045 0023380 301.4420 181.7611  2.00579091    15
GPS BIIF-7  (PRN 09)    
1 40105C 14045A   21213.71090278 -.00000000  00000-0  00000-0 0  2137
2 40105  54.6354 159.5720 0017561 105.9603 315.7846  2.00555962    11
GPS BIIF-8  (PRN 03)    
1 40294C 14068A   21213.71090278 -.00000000  00000-0  00000-0 0  2131
2 40294  55.5828 100.5911 0035774  49.7695 108.1277  2.00578448    12
GPS BIIF-9  (PRN 26)    
1 40534C 15013A   21213.71090278  .00000000  00000-0  00000-0 0  2138
2 40534  53.9176 277.9367 0058818  14.9564  39.9758  2.00572306    16
GPS BIIF-10 (PRN 08)    
1 40730C 15033A   21213.71090278  .00000000  00000-0  00000-0 0  2138
2 40730  55.3953 339.5348 0063692   1.3992 298.7692  2.00568974    16
GPS BIIF-11 (PRN 10)    
1 41019C 15062A   21213.71090278 -.00000000  00000-0  00000-0 0  2132
2 41019  55.5750 100.4277 0068935 213.9275  49.9780  2.00563763    15
GPS BIIF-12 (PRN 32)    
1 41328C 16007A   21213.71090278 -.00000000  00000-0  00000-0 0  2135
2 41328  54.8615 160.1634 0052341 226.4867 331.8448  2.00560358    11
GPS BIII-1  (PRN 04)    
1 43873C 18109A   21213.71090278 -.00000000  00000-0  00000-0 0  2137
2 43873  55.0427 162.5148 0013768 198.9428 252.1070  2.00558811    11
GPS BIII-2  (PRN 18)    
1 44506C 19056A   21213.71090278 -.00000000  00000-0  00000-0 0  2133
2 44506  55.5096  41.7933 0017091 173.2937 177.7271  2.00566720    19
GPS BIII-3  (PRN 23)    
1 45854C 20041A   21213.71090278 -.00000000  00000-0  00000-0 0  2136
2 45854  55.2890  99.0623 0013777 159.0565 134.6210  2.00565145    18
GPS BIII-4  (PRN 14)    
1 46826C 20078A   21213.71090278  .00000000  00000-0  00000-0 0  2135
2 46826  54.7883 283.0611 0009563 186.3215  75.9010  2.00554662    16
GPS BIII-5  (PRN 11)    
1 48859C 21054A   21213.71090278 -.00000000  00000-0  00000-0 0  2139
2 48859  55.0080  43.9501 0002936 111.4760 342.9305  2.00563890    16
